GECAM-A                 
1 47234U 20094A   26058.13989985  .00002379  00000+0  17329-3 0  9993
2 47234  28.9961  20.3521 0010700 243.6219 116.3280 15.00334340285149
STARLINK-34338          
1 64151U 25112F   26068.69381539  .00005411  00000+0  37896-3 0  9990
2 64151  97.6040 121.5914 0000728  93.3323 266.7987 15.05649471 43316
